{"fetched_at":"2026-03-30T06:02:59Z","count":15439,"tles":[{"name":"STARLINK-31140","line1":"1 58767U 24011C   26087.84569300  .00000675  00000+0  34916-4 0  9993","line2":"2 58767  53.1603 284.6643 0000976  98.2403 261.8708 15.30197307123200","category":"Starlink"}]}